satname,norad_id,inclination_deg,eccentricity,mean_motion_rev_per_day,perigee_km,apogee_km,l1,l2
STARLINK-1309,45414,53.0571,0.0003632,15.77468012,335.1781626878519,340.0564866292834,1 45414U 20019BG  26200.27950714  .00049172  00000+0  29285-3 0  9996,2 45414  53.0571 196.9302 0003632  55.2034 304.9327 15.77468012350652
STARLINK-1316,45415,53.1528,0.0001927,15.42528827,437.33522222844385,439.96241148226,1 45415U 20019BH  26200.40338969  .00024365  00000+0  56063-3 0  9995,2 45415  53.1528 231.6723 0001927 331.3092  28.7808 15.42528827350240
STARLINK-1286,45417,53.0426,0.0006928,15.68793134,357.6819371063757,367.02155831520304,1 45417U 20019BK  26200.27145151  .00039108  00000+0  33827-3 0  9995,2 45417  53.0426 210.5617 0006928  32.8120 327.3325 15.68793134350758
STARLINK-1308,45419,53.0434,0.0002994,15.69686836,357.7757014829358,361.8103739895323,1 45419U 20019BM  26200.45417849  .00029081  00000+0  24423-3 0  9994,2 45419  53.0434 228.6684 0002994 130.7003 229.4274 15.69686836350262
STARLINK-1329,45531,53.0392,0.0004052,15.79067673,330.3616146770055,335.8003857443773,1 45531U 20025A   26200.28776253  .00055818  00000+0  30871-3 0  9995,2 45531  53.0392 150.6326 0004052  37.4994 322.6308 15.79067673346123
STARLINK-1338,45532,53.0407,0.0002862,15.75636699,340.8964526905711,344.7435284719786,1 45532U 20025B   26200.60358941  .00047133  00000+0  30453-3 0  9999,2 45532  53.0407 156.8807 0002862  86.1550 273.9796 15.75636699346067
STARLINK-1350,45535,53.0706,0.0001973,15.40531567,443.19329006395765,445.8855181730223,1 45535U 20025E   26200.20026172  .00028537  00000+0  69945-3 0  9991,2 45535  53.0706 133.8988 0001973  86.8609 273.2621 15.40531567346397
STARLINK-1362,45538,53.1541,0.000567,15.40797738,439.88562994186486,447.62165392981933,1 45538U 20025H   26200.29270485  .00021958  00000+0  53604-3 0  9996,2 45538  53.1541 205.0322 0005670   5.2114 354.8949 15.40797738345398
STARLINK-1368,45540,53.1541,0.0004346,15.4106778,439.99223603501287,445.92113066458023,1 45540U 20025K   26200.30083622  .00025977  00000+0  62653-3 0  9995,2 45540  53.1541 205.3032 0004346   4.2756 355.8285 15.41067780345383
STARLINK-1371,45542,53.0414,0.0002515,15.72437876,350.23928844773945,353.62451310482993,1 45542U 20025M   26200.28948636  .00045141  00000+0  33490-3 0  9991,2 45542  53.0414 169.2216 0002515  68.0363 292.0922 15.72437876345867
STARLINK-1372,45543,53.1542,0.0004635,15.41546669,438.3830173755987,444.7048616065067,1 45543U 20025N   26200.70131108  .00026888  00000+0  63786-3 0  9995,2 45543  53.1542 202.7769 0004635 359.1502   0.9495 15.41546669344554
STARLINK-1373,45544,53.0427,0.0003257,15.74254437,344.56330793248617,348.94390167245547,1 45544U 20025P   26200.31140313  .00044773  00000+0  30741-3 0  9999,2 45544  53.0427 163.6599 0003257  80.6003 279.5383 15.74254437345942
STARLINK-1327,45555,53.0386,0.000238,15.76380774,339.10581250744144,342.3039812503557,1 45555U 20025AA  26200.84936475  .00049251  00000+0  30778-3 0  9997,2 45555  53.0386 137.9853 0002380 108.4854 251.6424 15.76380774346342
STARLINK-1356,45564,53.0414,0.0004639,15.68685011,359.5344171681418,365.78852999192804,1 45564U 20025AK  26200.89437431  .00030588  00000+0  26729-3 0  9994,2 45564  53.0414 152.6643 0004639  64.1242 296.0252 15.68685011346146
STARLINK-1357,45565,53.0418,0.0001311,15.74194312,346.04318238686665,347.8064936007886,1 45565U 20025AL  26200.03290849  .00046012  00000+0  31663-3 0  9993,2 45565  53.0418 112.1607 0001311 240.2099 119.8789 15.74194312346641
STARLINK-1361,45567,53.0396,0.0002472,15.72638522,349.69591724569636,353.02298028996756,1 45567U 20025AN  26200.83471044  .00040963  00000+0  30190-3 0  9994,2 45567  53.0396 150.6170 0002472  92.9990 267.1310 15.72638522346170
STARLINK-1376,45570,53.1548,0.0002866,15.42017064,438.202842192969,442.1110882938465,1 45570U 20025AR  26200.21300714  .00030037  00000+0  70025-3 0  9997,2 45570  53.1548 181.3596 0002866  19.7944 340.3173 15.42017064345719
STARLINK-1320,45572,53.0326,0.000341,16.0660955,253.89824490835144,258.42283583088283,1 45572U 20025AT  26200.85203632  .00377742  78106-4  48772-3 0  9998,2 45572  53.0326  39.8599 0003410 249.3999 110.6668 16.06609550347730
STARLINK-1321,45573,53.0404,0.0001355,15.73093905,349.1490014581341,350.9723430273125,1 45573U 20025AU  26200.83020259  .00043235  00000+0  31224-3 0  9993,2 45573  53.0404 134.3754 0001355  98.2431 261.8740 15.73093905346092
STARLINK-1331,45578,53.043,0.0001935,15.72821105,349.53658029329927,352.1406938648488,1 45578U 20025AZ  26200.85994925  .00040864  00000+0  29888-3 0  9998,2 45578  53.0430 141.2234 0001935  96.5549 263.5689 15.72821105346317
STARLINK-1333,45580,53.1552,0.000453,15.39023724,445.90228499578734,452.0876665658452,1 45580U 20025BB  26200.66718299  .00025348  00000+0  65405-3 0  9993,2 45580  53.1552 181.6310 0004530  19.5848 340.5329 15.39023724345758
STARLINK-1335,45581,53.1522,0.0003722,15.40543133,441.96586803327136,447.04464292825105,1 45581U 20025BC  26200.32722329  .00030417  00000+0  74434-3 0  9991,2 45581  53.1522 179.4511 0003722 353.1211   6.9743 15.40543133345742
STARLINK-1337,45582,53.0403,0.0001548,15.8083836,327.0304818137729,329.1067230682884,1 45582U 20025BD  26200.81492486  .00066909  00000+0  34040-3 0  9998,2 45582  53.0403 128.2066 0001548 141.2230 218.8903 15.80838360346474
STARLINK-1347,45586,53.0362,0.0001392,15.73099871,349.1070983040727,350.98022380010934,1 45586U 20025BH  26200.03317961  .00044870  00000+0  32373-3 0  9990,2 45586  53.0362 104.6422 0001392  94.9556 265.1621 15.73099871346737
STARLINK-1364,45589,53.0398,0.0004307,15.7388951,344.8962094937342,350.6899256539409,1 45589U 20025BL  26200.84611769  .00043854  00000+0  30593-3 0  9998,2 45589  53.0398 137.0849 0004307  71.6784 288.4703 15.73889510346350
STARLINK-1365,45590,53.0437,0.0003279,15.68810456,360.0919409499229,364.5123209319945,1 45590U 20025BM  26200.17811138  .00028956  00000+0  25210-3 0  9994,2 45590  53.0437 176.4421 0003279  53.8312 306.3007 15.68810456345763
STARLINK-1443,45660,53.1328,0.0002693,15.35582726,457.34889355114865,461.0314779733999,1 45660U 20035D   26200.61532991  .00025528  00000+0  73591-3 0  9996,2 45660  53.1328 171.3843 0002693  64.8424 295.2858 15.35582726338962
STARLINK-1446,45663,53.0204,0.0002443,15.49972294,415.147036981316,418.4670466401449,1 45663U 20035G   26200.08513112  .00018892  00000+0  33891-3 0  9999,2 45663  53.0204  92.0205 0002443  38.7782 321.3400 15.49972294340008
STARLINK-1448,45665,53.0392,0.0001941,15.78063958,334.6232433837995,337.22964281241093,1 45665U 20035J   26200.81373050  .00061505  00000+0  35532-3 0  9990,2 45665  53.0392 123.9155 0001941 126.1228 233.9972 15.78063958339612
STARLINK-1451,45668,53.0513,0.0002701,15.15954608,516.2193039892636,519.9446414783351,1 45668U 20035M   26200.38467945  .00011788  00000+0  62214-3 0  9997,2 45668  53.0513 188.6227 0002701  26.3791 333.7339 15.15954608338683
STARLINK-1452,45669,53.0212,0.000682,15.65190307,368.08742969851664,377.29555976533175,1 45669U 20035N   26200.17051074  .00028293  00000+0  28489-3 0  9992,2 45669  53.0212 105.6051 0006820  87.3223 272.8571 15.65190307339828
STARLINK-1453,45670,53.0352,0.0002012,15.79065423,331.73707704528897,334.4376737339462,1 45670U 20035P   26200.82920007  .00072762  00000+0  40066-3 0  9992,2 45670  53.0352  83.9233 0002012 208.2653 151.8259 15.79065423340078
STARLINK-1454,45671,53.0415,0.0001636,15.76366695,339.64569305760506,341.8441112159844,1 45671U 20035Q   26200.16348276  .00054482  00000+0  34007-3 0  9999,2 45671  53.0415 128.8822 0001636 116.3385 243.7802 15.76366695339484
STARLINK-1456,45673,53.0389,0.0001339,15.72541608,350.7348169475126,352.5370501391162,1 45673U 20035S   26200.77434811  .00042038  00000+0  31096-3 0  9998,2 45673  53.0389 121.2456 0001339 110.6065 249.5097 15.72541608339663
STARLINK-1458,45675,53.0422,0.0001962,15.68990204,360.4649453178563,363.1096916204233,1 45675U 20035U   26200.91667823 -.00316286  00000+0 -27876-2 0  9998,2 45675  53.0422 137.7670 0001962  80.4727  28.1790 15.68990204  5941
STARLINK-1460,45676,53.1555,0.0004413,15.38726601,446.860610678983,452.88701302152276,1 45676U 20035V   26200.19364161  .00029625  00000+0  76968-3 0  9991,2 45676  53.1555 171.1079 0004413  41.7696 318.3644 15.38726601338894
STARLINK-1392,45677,53.1515,0.000538,15.42265087,435.75809676003246,443.09379448952495,1 45677U 20035W   26200.31391919  .00027492  00000+0  63648-3 0  9998,2 45677  53.1515 168.1459 0005380  33.2780 326.8564 15.42265087338989
STARLINK-1394,45679,53.0388,0.0001281,15.70944765,355.33297222142846,357.0583082438561,1 45679U 20035Y   26200.74190131  .00035313  00000+0  28033-3 0  9990,2 45679  53.0388 112.0063 0001281 125.4924 234.6212 15.70944765339780
STARLINK-1402,45685,53.0392,9.83e-05,15.67946796,364.11426459316044,365.43992150385384,1 45685U 20035AE  26200.00810751  .00031236  00000+0  28125-3 0  9995,2 45685  53.0392 108.1878 0000983 136.2498 223.8596 15.67946796339783
STARLINK-1404,45686,53.1552,0.0004695,15.48353649,418.3493794615306,424.7342778816528,1 45686U 20035AF  26200.14263224  .00042729  00000+0  79809-3 0  9992,2 45686  53.1552 148.7947 0004695  25.5885 334.5355 15.48353649339246
STARLINK-1413,45689,53.1558,0.0004969,15.38450336,447.2979627798477,454.0844522524767,1 45689U 20035AJ  26200.88629722  .00029097  00000+0  76298-3 0  9997,2 45689  53.1558 152.5406 0004969  41.5020 318.6361 15.38450336339173
STARLINK-1417,45693,53.0498,0.0002956,15.18613807,507.99297163470965,512.0652554410335,1 45693U 20035AN  26200.87281966  .00014530  00000+0  70727-3 0  9992,2 45693  53.0498 172.2833 0002956 337.1868  22.8994 15.18613807338943
STARLINK-1420,45695,53.042,0.000118,15.75346946,342.8509172942795,344.4372576309206,1 45695U 20035AQ  26200.08615930  .00050055  00000+0  32719-3 0  9990,2 45695  53.0420  97.3356 0001180 177.3690 182.7335 15.75346946339937
